[Satellite]
VERSION=1.1
NAME=IRIDIUM 52 [+]
NICKNAME=IRIDIUM 52 [+]
TLE1=1 25169U 98010A   15055.30365287  .00000228  00000-0  74197-4 0  9995
TLE2=2 25169  86.4009 343.1000 0002218  98.8812  12.9246 14.34219310890821
